{
    "links": {
        "self": "http://www.neowsapp.com/rest/v1/neo/3797407?api_key=iIulBulltgU6a56xZRHN4H3l9WmuAYTsLGpBGhQ2"
    },
    "id": "3797407",
    "neo_reference_id": "3797407",
    "name": "(2018 AY)",
    "designation": "2018 AY",
    "nasa_jpl_url": "http://ssd.jpl.nasa.gov/sbdb.cgi?sstr=3797407",
    "absolute_magnitude_h": 23.2,
    "estimated_diameter": {
        "kilometers": {
            "estimated_diameter_min": 0.0608912622,
            "estimated_diameter_max": 0.1361570015
        },
        "meters": {
            "estimated_diameter_min": 60.8912622106,
            "estimated_diameter_max": 136.1570015386
        },
        "miles": {
            "estimated_diameter_min": 0.0378360645,
            "estimated_diameter_max": 0.0846040122
        },
        "feet": {
            "estimated_diameter_min": 199.7744887109,
            "estimated_diameter_max": 446.7093369279
        }
    },
    "is_potentially_hazardous_asteroid": false,
    "close_approach_data": [
        {
            "close_approach_date": "2017-12-26",
            "close_approach_date_full": "2017-Dec-26 16:45",
            "epoch_date_close_approach": 1514306700000,
            "relative_velocity": {
                "kilometers_per_second": "13.4776137411",
                "kilometers_per_hour": "48519.4094679229",
                "miles_per_hour": "30148.0741774435"
            },
            "miss_distance": {
                "astronomical": "0.0433244639",
                "lunar": "16.8532164571",
                "kilometers": "6481247.518331893",
                "miles": "4027260.4613424034"
            },
            "orbiting_body": "Earth"
        }
    ],
    "orbital_data": {
        "orbit_id": "8",
        "orbit_determination_date": "2018-02-26 06:22:06",
        "first_observation_date": "2018-01-07",
        "last_observation_date": "2018-01-23",
        "data_arc_in_days": 16,
        "observations_used": 66,
        "orbit_uncertainty": "8",
        "minimum_orbit_intersection": ".018425",
        "jupiter_tisserand_invariant": "3.102",
        "epoch_osculation": "2458133.5",
        "eccentricity": ".6510752920371937",
        "semi_major_axis": "2.551372225681869",
        "inclination": "1.772736836272427",
        "ascending_node_longitude": "41.96892082058085",
        "orbital_period": "1488.535381782203",
        "perihelion_distance": ".8902368087504612",
        "perihelion_argument": "7.629911234888301",
        "aphelion_distance": "4.212507642613277",
        "perihelion_time": "2458083.115878474401",
        "mean_anomaly": "12.1853225467163",
        "mean_motion": ".2418484668929917",
        "equinox": "J2000",
        "orbit_class": {
            "orbit_class_type": "APO",
            "orbit_class_description": "Near-Earth asteroid orbits which cross the Earth’s orbit similar to that of 1862 Apollo",
            "orbit_class_range": "a (semi-major axis) > 1.0 AU; q (perihelion) < 1.017 AU"
        }
    },
    "is_sentry_object": false
}